COSMOS 2503             
1 40420U 15009A   26068.69626972  .00002817  00000+0  19590-3 0  9998
2 40420  97.8437 123.7175 0015321 225.7450 134.2520 15.06275973603958
STARLINK-5743           
1 55597U 23020AE  26068.87853722  .00030642  00000+0  22575-2 0  9999
2 55597  43.0041 351.0025 0004696  34.3722 325.7423 15.02796951169093
